[{"OBJECT_NAME":"STARLINK-34770","OBJECT_ID":"2025-161X","EPOCH":"2026-03-09T22:17:40.550784","MEAN_MOTION":15.30208306,"ECCENTRICITY":7.401e-5,"INCLINATION":53.1587,"RA_OF_ASC_NODE":293.2909,"ARG_OF_PERICENTER":99.5547,"MEAN_ANOMALY":260.5537,"EPHEMERIS_TYPE":0,"CLASSIFICATION_TYPE":"U","NORAD_CAT_ID":65036,"ELEMENT_SET_NO":999,"REV_AT_EPOCH":3426,"BSTAR":0.00018363822,"MEAN_MOTION_DOT":5.085e-5,"MEAN_MOTION_DDOT":0},{"OBJECT_NAME":"COSMOS 2535 DEB","OBJECT_ID":"2019-039M","EPOCH":"2026-03-08T03:25:35.903424","MEAN_MOTION":15.28322551,"ECCENTRICITY":0.0014917,"INCLINATION":97.5619,"RA_OF_ASC_NODE":139.2722,"ARG_OF_PERICENTER":329.0964,"MEAN_ANOMALY":30.9396,"EPHEMERIS_TYPE":0,"CLASSIFICATION_TYPE":"U","NORAD_CAT_ID":44641,"ELEMENT_SET_NO":999,"REV_AT_EPOCH":35167,"BSTAR":0.0011539757,"MEAN_MOTION_DOT":0.0003196,"MEAN_MOTION_DDOT":0}]
